[{"OBJECT_NAME":"SALSAT","OBJECT_ID":"2020-068K","EPOCH":"2026-03-09T22:26:21.804576","MEAN_MOTION":15.28191989,"ECCENTRICITY":0.00082652,"INCLINATION":97.8859,"RA_OF_ASC_NODE":66.0795,"ARG_OF_PERICENTER":295.8051,"MEAN_ANOMALY":64.2334,"EPHEMERIS_TYPE":0,"CLASSIFICATION_TYPE":"U","NORAD_CAT_ID":46495,"ELEMENT_SET_NO":999,"REV_AT_EPOCH":30019,"BSTAR":0.00040842582,"MEAN_MOTION_DOT":0.00011156,"MEAN_MOTION_DDOT":0},{"OBJECT_NAME":"STARLINK-35560","OBJECT_ID":"2025-235B","EPOCH":"2026-03-09T21:35:47.255136","MEAN_MOTION":15.3020617,"ECCENTRICITY":8.702e-5,"INCLINATION":53.1581,"RA_OF_ASC_NODE":244.2952,"ARG_OF_PERICENTER":90.4613,"MEAN_ANOMALY":269.6487,"EPHEMERIS_TYPE":0,"CLASSIFICATION_TYPE":"U","NORAD_CAT_ID":66059,"ELEMENT_SET_NO":999,"REV_AT_EPOCH":2295,"BSTAR":0.0011082328,"MEAN_MOTION_DOT":0.00032614,"MEAN_MOTION_DDOT":0}]
